[{"fro": {"name": "Agarwadi Bus stop", "location": {"latitude": 19.0458454, "longitude": 72.9257478}, "operator": null, "shelter": "no", "raw_tags": {"bench": "no", "bin": "no", "bus": "yes", "highway": "bus_stop", "lit": "yes", "name": "Agarwadi Bus stop", "public_transport": "platform", "shelter": "no"}}, "to": {"name": "BARC Gate 6", "location": {"latitude": 19.0421735, "longitude": 72.9329888}, "operator": null, "shelter": "yes", "raw_tags": {"bench": "yes", "bin": "yes", "bus": "yes", "highway": "bus_stop", "lit": "yes", "name": "BARC Gate 6", "public_transport": "platform", "shelter": "yes"}}, "time": 482}, {"fro": {"name": "Agarwadi Bus stop", "location": {"latitude": 19.0458454, "longitude": 72.9257478}, "operator": null, "shelter": "no", "raw_tags": {"bench": "no", "bin": "no", "bus": "yes", "highway": "bus_stop", "lit": "yes", "name": "Agarwadi Bus stop", "public_transport": "platform", "shelter": "no"}}, "to": {"name": "Vaitiwadi", "location": {"latitude": 19.20168, "longitude": 72.9588321}, "operator": "Thane Muncipal Transport", "shelter": null, "raw_tags": {"bus": "yes", "highway": "bus_stop", "name:en": "Vaitiwadi", "network": "Thane Muncipal Transport", "network:wikidata": "Q7710243", "operator": "Thane Muncipal Transport", "public_transport": "platform"}}, "time": 2141}, {"fro": {"name": "BARC Gate 6", "location": {"latitude": 19.0421735, "longitude": 72.9329888}, "operator": null, "shelter": "yes", "raw_tags": {"bench": "yes", "bin": "yes", "bus": "yes", "highway": "bus_stop", "lit": "yes", "name": "BARC Gate 6", "public_transport": "platform", "shelter": "yes"}}, "to": {"name": "Agarwadi Bus stop", "location": {"latitude": 19.0458454, "longitude": 72.9257478}, "operator": null, "shelter": "no", "raw_tags": {"bench": "no", "bin": "no", "bus": "yes", "highway": "bus_stop", "lit": "yes", "name": "Agarwadi Bus stop", "public_transport": "platform", "shelter": "no"}}, "time": 238}, {"fro": {"name": "BARC Gate 6", "location": {"latitude": 19.0421735, "longitude": 72.9329888}, "operator": null, "shelter": "yes", "raw_tags": {"bench": "yes", "bin": "yes", "bus": "yes", "highway": "bus_stop", "lit": "yes", "name": "BARC Gate 6", "public_transport": "platform", "shelter": "yes"}}, "to": {"name": "Vaitiwadi", "location": {"latitude": 19.20168, "longitude": 72.9588321}, "operator": "Thane Muncipal Transport", "shelter": null, "raw_tags": {"bus": "yes", "highway": "bus_stop", "name:en": "Vaitiwadi", "network": "Thane Muncipal Transport", "network:wikidata": "Q7710243", "operator": "Thane Muncipal Transport", "public_transport": "platform"}}, "time": 2380}, {"fro": {"name": "Vaitiwadi", "location": {"latitude": 19.20168, "longitude": 72.9588321}, "operator": "Thane Muncipal Transport", "shelter": null, "raw_tags": {"bus": "yes", "highway": "bus_stop", "name:en": "Vaitiwadi", "network": "Thane Muncipal Transport", "network:wikidata": "Q7710243", "operator": "Thane Muncipal Transport", "public_transport": "platform"}}, "to": {"name": "Agarwadi Bus stop", "location": {"latitude": 19.0458454, "longitude": 72.9257478}, "operator": null, "shelter": "no", "raw_tags": {"bench": "no", "bin": "no", "bus": "yes", "highway": "bus_stop", "lit": "yes", "name": "Agarwadi Bus stop", "public_transport": "platform", "shelter": "no"}}, "time": 2357}, {"fro": {"name": "Vaitiwadi", "location": {"latitude": 19.20168, "longitude": 72.9588321}, "operator": "Thane Muncipal Transport", "shelter": null, "raw_tags": {"bus": "yes", "highway": "bus_stop", "name:en": "Vaitiwadi", "network": "Thane Muncipal Transport", "network:wikidata": "Q7710243", "operator": "Thane Muncipal Transport", "public_transport": "platform"}}, "to": {"name": "BARC Gate 6", "location": {"latitude": 19.0421735, "longitude": 72.9329888}, "operator": null, "shelter": "yes", "raw_tags": {"bench": "yes", "bin": "yes", "bus": "yes", "highway": "bus_stop", "lit": "yes", "name": "BARC Gate 6", "public_transport": "platform", "shelter": "yes"}}, "time": 2560}]